[{"OBJECT_NAME":"FLOCK 4H-25","OBJECT_ID":"2025-276BQ","EPOCH":"2026-03-09T18:21:52.055712","MEAN_MOTION":15.19480848,"ECCENTRICITY":8.716e-5,"INCLINATION":97.4262,"RA_OF_ASC_NODE":144.1192,"ARG_OF_PERICENTER":117.3208,"MEAN_ANOMALY":242.8115,"EPHEMERIS_TYPE":0,"CLASSIFICATION_TYPE":"U","NORAD_CAT_ID":66728,"ELEMENT_SET_NO":999,"REV_AT_EPOCH":1461,"BSTAR":0.00039445995,"MEAN_MOTION_DOT":8.305e-5,"MEAN_MOTION_DDOT":0},{"OBJECT_NAME":"SL-3 R\/B","OBJECT_ID":"1981-103B","EPOCH":"2026-03-09T21:41:31.338816","MEAN_MOTION":15.21379038,"ECCENTRICITY":0.00124427,"INCLINATION":81.1587,"RA_OF_ASC_NODE":213.1807,"ARG_OF_PERICENTER":286.2286,"MEAN_ANOMALY":73.7576,"EPHEMERIS_TYPE":0,"CLASSIFICATION_TYPE":"U","NORAD_CAT_ID":12904,"ELEMENT_SET_NO":999,"REV_AT_EPOCH":97326,"BSTAR":0.00027179641,"MEAN_MOTION_DOT":6.129e-5,"MEAN_MOTION_DDOT":0}]
